ID,Address,Suburb,Price,Type,Date,Rooms,Bathroom,Car,LandSize,Age,Latitude,Longitude,train_station_id,distance_to_train_station,travel_min_to_CBD,over_priced?,crime_A_average,crime_B_average,crime_C_average
ID605674126,31/41 Harrow St,BOX HILL,465000.0,u,13/08/2016,2,2.0,1.0,0.0,9.0,-37.8216,145.127,20042.0,556.8466989459158,25.71794871794872,0,343,1929,260
ID964255084,11 Nareen Av,COOLAROO,515000.0,h,8/07/2017,4,1.0,0.0,616.0,129.0,-37.65879,144.9296,44817.0,397.77260466235265,43.0,0,50,148,23
ID211447040,4 Melliodora Pl,YALLAMBIE,731000.0,h,18/06/2016,3,2.0,2.0,566.0,28.0,-37.7195,145.1034,19986.0,1662.4200184578303,43.9,0,130,762,109
ID971953765,21 Chicquita Cct,MENTONE,792000.0,t,16/09/2017,3,2.0,2.0,156.0,8.0,-37.97928,145.0763,19865.0,1018.441980523508,44.6875,0,12,13,5
ID985690646,12 Coane St,PASCOE VALE,960000.0,h,25/02/2017,3,1.0,2.0,641.0,69.0,-37.7253,144.938,20034.0,1055.4599241197448,31.0,0,92,1027,111
ID540630732,81 Quinn Gr,KEILOR EAST,700000.0,h,22/05/2016,5,2.0,2.0,629.0,49.0,-37.7423,144.869,22253.0,4425.772628336235,18.333333333333332,0,79,225,53
ID452622179,409/216 Rouse St,PORT MELBOURNE,665000.0,u,3/06/2017,2,2.0,1.0,1472.0,9.0,-37.84096,144.93791000000004,19841.0,3583.2922826752756,3.4078212290502794,1,92,1027,111
ID675152182,37 Lewis St,ORMOND,1770000.0,h,10/09/2016,3,2.0,2.0,667.0,69.0,-37.9088,145.0471,19940.0,791.0114643311158,33.15384615384615,0,36,147,42
ID172003287,13 Kemp Av,THOMASTOWN,610000.0,h,8/07/2017,3,1.0,2.0,544.0,49.0,-37.68336,145.0029,20007.0,1057.3940357905217,40.22222222222222,0,71,332,39
ID511005901,9 Filbert St,CAULFIELD SOUTH,1470000.0,h,7/05/2016,3,2.0,2.0,296.0,109.0,-37.8906,145.0224,19953.0,1739.3613671202004,23.5,0,200,1136,143
ID968327765,6 Epping St,HADFIELD,750000.0,h,9/09/2017,3,1.0,3.0,665.0,49.0,-37.70444000000001,144.95273999999995,19961.0,683.5693073152886,39.0,0,230,1620,177
ID963234243,4 Ashworth St,ALBERT PARK,1700000.0,h,6/05/2017,3,1.0,1.0,178.0,109.0,-37.8473,144.9495,19958.0,3556.2258922247142,13.5,0,151,1120,125
ID113065591,1/8 Louise St,CLIFTON HILL,712000.0,u,20/05/2017,2,1.0,1.0,36.0,49.0,-37.7926,145.0019,19974.0,719.6417768119379,15.142857142857142,0,137,1183,166
ID124872574,132 Cornwall Rd,SUNSHINE,910000.0,h,25/02/2017,3,2.0,2.0,653.0,27.0,-37.7815,144.8423,20021.0,1140.4201187739077,24.0,0,176,1272,233
ID278201100,22 Waterloo Rd,NORTHCOTE,1350000.0,h,24/06/2017,3,1.0,0.0,271.0,109.0,-37.7754,145.00229,19928.0,640.3694709423748,18.923076923076923,0,26,68,13
ID492350721,21/659 Victoria St,ABBOTSFORD,550000.0,u,8/07/2017,2,1.0,1.0,1521.0,49.0,-37.8114,145.01163,19905.0,1526.087956135616,13.952380952380953,0,151,1120,125
ID860645522,2/36 May St,ALTONA NORTH,675000.0,h,14/05/2016,3,2.0,2.0,171.0,7.0,-37.8337,144.8554,19994.0,2674.6323016492506,16.310344827586206,1,311,2215,346
ID658005693,11/5 Warner St,MALVERN,456000.0,u,6/05/2017,1,1.0,1.0,4721.0,59.0,-37.8515,145.0372,19945.0,1664.9646694658247,19.214285714285715,1,102,352,106
ID211284827,1/30 Archibald St,PASCOE VALE,488000.0,u,14/05/2016,2,1.0,2.0,219.0,18.0,-37.7283,144.9331,20034.0,511.06149395259393,31.0,0,85,1043,112
ID987845346,15 Myalla St,BRAYBROOK,570000.0,h,24/06/2017,2,1.0,2.0,567.0,69.0,-37.7877,144.84757,22241.0,1295.8139384849421,15.85,0,362,2108,314
ID379438244,99 Merton St,ALBERT PARK,1900000.0,h,27/05/2017,3,1.0,1.0,186.0,129.0,-37.84431,144.95532,22238.0,3070.4894580627993,3.5,1,151,1120,125
ID464068145,13 Anglers Dr,EPPING,600000.0,h,22/07/2017,4,2.0,2.0,500.0,6.0,-37.62756,145.03364,20005.0,2781.0325302526,45.22222222222222,0,250,1550,286
ID829316103,14/182 Albert Rd,SOUTH MELBOURNE,1500000.0,u,16/04/2016,2,2.0,2.0,0.0,15.0,-37.8369,144.968,22238.0,2071.9285175348887,3.5,0,137,681,137
ID816326374,16 Scenic Dr,ASHWOOD,1529500.0,h,17/09/2016,5,3.0,2.0,585.0,19.0,-37.8637,145.1024,19848.0,1860.5055195760135,30.666666666666668,0,206,1709,183
ID912651428,3/48 Alpha St,BALWYN NORTH,1040000.0,u,24/09/2016,2,1.0,1.0,250.0,24.0,-37.7996,145.0959,19896.0,2363.9654721765237,28.76923076923077,0,120,881,102
ID299065580,73a Victoria St,WILLIAMSTOWN,2075000.0,h,6/05/2017,4,3.0,2.0,324.0,10.0,-37.8622,144.8884,19993.0,544.91304215823,20.857142857142858,1,145,787,144
ID318367511,14A Supply Dr,EPPING,452500.0,h,27/05/2017,2,1.0,1.0,279.0,34.0,-37.65791,145.02643,20005.0,695.568573396943,45.22222222222222,0,250,1550,286
ID869851854,6 The Mews,HAMPTON PARK,400000.0,h,8/07/2017,3,1.0,1.0,301.0,21.0,-38.0457,145.27395,45793.0,2521.418832398118,56.22222222222222,0,44,101,24
ID897486050,18 Metung St,BALWYN,3600000.0,h,10/12/2016,5,3.0,2.0,678.0,16.0,-37.8063,145.0705,19892.0,2190.6054237765093,21.785714285714285,1,120,881,102
ID649862095,16A Madden St,MAIDSTONE,798000.0,h,12/08/2017,3,2.0,2.0,159.0,9.0,-37.78974,144.88143,20023.0,1386.4483579778894,19.4,1,102,352,106
ID649044700,7 High St,SUNSHINE,780000.0,h,4/03/2017,3,1.0,0.0,486.0,76.0,-37.7886,144.8438,20021.0,960.8314710626378,24.0,0,176,1272,233
ID566771661,48 Smith Av,WILLIAMSTOWN,1630000.0,h,3/09/2017,4,3.0,2.0,400.0,49.0,-37.86338,144.88322,19993.0,846.9487760405726,20.857142857142858,0,145,787,144
ID185675607,4/51 Yarra St,HEIDELBERG,705000.0,t,6/08/2016,2,1.0,1.0,182.0,46.0,-37.7587,145.0657,19935.0,477.03481515097724,29.823529411764707,0,150,1565,276
ID930523321,2/7 Murra Ct,ASHWOOD,860000.0,h,17/06/2017,3,2.0,2.0,280.0,29.0,-37.87105,145.10198,19847.0,1985.1365121384622,31.666666666666668,0,209,1886,215
ID576745801,40 Howard St,MAIDSTONE,740000.0,h,25/02/2017,3,1.0,2.0,333.0,69.0,-37.7889,144.8787,20023.0,1550.6247347690528,19.4,0,102,352,106
ID386501605,90 Bent St,MOONEE PONDS,1400000.0,h,29/07/2017,4,2.0,1.0,375.0,89.0,-37.76261,144.93249,20038.0,1222.5868229203036,22.0,0,49,102,21
ID415138499,26 Northumberland Rd,PASCOE VALE,855000.0,h,26/07/2016,2,1.0,2.0,659.0,70.0,-37.7286,144.9317,20034.0,390.8815204830915,31.0,1,85,1043,112
ID371116612,1/39 Alexandra St,GREENSBOROUGH,610000.0,u,15/07/2017,2,1.0,1.0,168.0,34.0,-37.70801,145.10689,19985.0,467.0518991968709,41.666666666666664,1,86,751,113
ID706705423,1/3 Gleniffer Av,BRIGHTON EAST,585000.0,u,8/07/2017,2,1.0,1.0,0.0,69.0,-37.93171,145.03041000000005,19937.0,628.7211185874821,38.266666666666666,0,362,2108,314
ID327295848,10 Crawford St,NEWPORT,643700.0,h,28/08/2016,1,1.0,0.0,129.0,119.0,-37.8491,144.8903,19994.0,922.845930829566,16.310344827586206,0,11,52,6
ID560777372,5/3 Lennox St,MOONEE PONDS,420000.0,u,10/09/2016,2,1.0,1.0,0.0,69.0,-37.7701,144.9079,20038.0,1105.0104121901875,22.0,0,46,86,21
ID313385827,44/2 Horizon Dr,MARIBYRNONG,495000.0,u,18/03/2017,2,2.0,2.0,37000.0,39.0,-37.7752,144.8925,20038.0,2572.9864937823945,22.0,0,102,352,106
ID635273178,131 Chambers Rd,ALTONA NORTH,730000.0,h,22/07/2017,3,1.0,1.0,276.0,54.0,-37.82787,144.84364,20022.0,3609.9171667289434,21.4,0,311,2261,423
ID641817166,2/56 View St,PASCOE VALE,667500.0,t,12/11/2016,3,2.0,2.0,167.0,69.0,-37.7228,144.928,20033.0,785.6186209330428,34.0,0,85,1043,112
ID915235996,31 Hardwick St,COBURG,885000.0,h,18/06/2016,3,1.0,2.0,255.0,99.0,-37.7493,144.9701,19966.0,929.4214368342418,30.0,0,133,1156,139
ID167085090,34 Lincoln Rd,ESSENDON,1400000.0,h,13/05/2017,3,1.0,1.0,578.0,54.0,-37.7526,144.9089,22253.0,746.1514492756119,18.333333333333332,1,47,371,27
ID369365777,15 Ormond St,KENSINGTON,1675000.0,h,7/05/2016,4,2.0,2.0,279.0,17.0,-37.797,144.9303,20041.0,358.95993556821657,17.0,0,37,154,24
ID409103527,3/11 Lincoln Pl,WINDSOR,1177000.0,h,18/03/2017,2,2.0,2.0,521.0,19.0,-37.8543,144.9939,19957.0,254.8471104700893,15.5,0,145,787,144
ID512485039,24 Centaurus Av,ROXBURGH PARK,393200.0,h,29/07/2017,3,1.0,1.0,400.0,49.0,-37.62464,144.9345,40220.0,1515.029707344706,45.0,0,53,230,55
ID154137648,2/5 McDowell St,GREENSBOROUGH,540000.0,u,26/08/2017,2,1.0,1.0,208.0,24.0,-37.70791,145.09575,19984.0,1106.280068954825,37.666666666666664,0,86,751,113
ID513931096,330 Balaclava Rd,CAULFIELD NORTH,1300000.0,h,20/05/2017,4,1.0,1.0,443.0,54.0,-37.8738,145.0349,22248.0,784.0946416318379,19.5,0,199,1246,144
ID556059893,28 Moubray St,ALBERT PARK,2015000.0,h,3/06/2017,2,1.0,2.0,178.0,129.0,-37.84098,144.95115,22238.0,2881.73471182527,3.5,0,151,1120,125
ID246171645,6/76 Bay Rd,SANDRINGHAM,643500.0,u,1/07/2017,2,1.0,1.0,0.0,49.0,-37.95236,145.00737,19948.0,334.4167918389808,33.5,0,23,50,7
ID171849694,117 Barkly St,BRUNSWICK EAST,975000.0,h,26/08/2017,2,1.0,1.0,159.0,21.0,-37.77726,144.97247,19969.0,1236.251566644442,24.333333333333332,0,111,355,60
ID125516472,26 Wyalong St,ALBION,800000.0,h,8/04/2017,3,2.0,5.0,689.0,68.0,-37.7776,144.8167,20004.0,704.2171610315924,26.375,0,42,147,51
ID169932632,2/4 Lyons St,WILLIAMSTOWN,547500.0,u,24/09/2016,2,1.0,1.0,0.0,39.0,-37.8612,144.8971,19992.0,385.7003197202904,21.857142857142858,0,130,762,109
ID202799853,310/330 Lygon St,BRUNSWICK EAST,445000.0,u,27/06/2016,2,1.0,1.0,0.0,119.0,-37.7685,144.9724,19968.0,1130.8635547805602,25.333333333333332,0,100,300,45
ID650678611,60 Gibdon St,BURNLEY,1005000.0,h,3/12/2016,2,1.0,0.0,0.0,24.0,-37.8301,145.0103,19906.0,371.71878406528333,11.904761904761905,0,20,45,11
ID985259593,9 Rogerson St,AVONDALE HEIGHTS,750000.0,h,3/09/2016,3,1.0,1.0,0.0,39.0,-37.7634,144.8611,20004.0,3574.077377455398,26.375,0,206,1709,183
ID541925706,34 Cobden St,KEW,1275000.0,h,19/11/2016,2,1.0,0.0,381.0,3.0,-37.8033,145.036,19904.0,2022.64616406512,15.655172413793103,0,37,154,24
ID133412554,16 Bamfield Rd,HEIDELBERG HEIGHTS,565000.0,t,6/08/2016,2,2.0,1.0,201.0,12.0,-37.7426,145.0556,19936.0,928.3367623601978,31.75,0,150,1565,276
ID370725973,85 Roseneath St,CLIFTON HILL,1105000.0,h,8/10/2016,2,1.0,1.0,185.0,109.0,-37.7927,144.9981,19974.0,508.1556542491943,15.142857142857142,0,133,1156,139
ID254046289,2/64 Cawkwell St,MALVERN,635000.0,u,8/10/2016,2,1.0,1.0,0.0,49.0,-37.8537,145.041,19944.0,1735.2672170881888,20.8,0,87,348,76
ID527514658,14 Arthur St,BRAYBROOK,771000.0,h,20/05/2017,3,1.0,0.0,556.0,69.0,-37.7904,144.8514,20022.0,1414.9373551283195,21.4,0,362,2108,314
